STARLINK-31453          
1 59522U 24073M   26068.00945881  .00028943  00000+0  10570-2 0  9996
2 59522  43.0033 304.0819 0001812 268.3632  91.7012 15.27584354106275
TEVEL2-7                
1 63238U 25052AE  26068.66113295  .00019244  00000+0  69668-3 0  9998
2 63238  97.4054 324.3041 0008105 124.6830 235.5175 15.28414096 54803
